{
  "norad_id": 61689,
  "name": "STARLINK-11312 [DTC]",
  "history": [
    {
      "epoch": "2026-03-28T19:28:15.677184Z",
      "apogee_km": 360.67151163731523,
      "perigee_km": 358.87653214108377,
      "latitude_deg": 3.9778449427519286e-05,
      "longitude_deg": 173.94342570615882,
      "height_km": 360.3693887243507,
      "semi_major_axis_km": 6737.911021889199,
      "eccentricity": 0.0001332,
      "inclination_deg": 53.16,
      "raan_deg": 292.2351,
      "arg_perigee_deg": 69.2421,
      "mean_anomaly_deg": 290.874,
      "mean_motion_rev_day": 15.69693481
    },
    {
      "epoch": "2026-03-29T00:03:17.278848Z",
      "apogee_km": 360.369867856205,
      "perigee_km": 359.06676663784947,
      "latitude_deg": -5.228577723607212e-05,
      "longitude_deg": 104.05713436474083,
      "height_km": 360.61679129629584,
      "semi_major_axis_km": 6737.8553172470265,
      "eccentricity": 9.67e-05,
      "inclination_deg": 53.1601,
      "raan_deg": 291.2938,
      "arg_perigee_deg": 88.6472,
      "mean_anomaly_deg": 271.4656,
      "mean_motion_rev_day": 15.69712947
    },
    {
      "epoch": "2026-03-29T22:58:32.363328Z",
      "apogee_km": 360.38026830022955,
      "perigee_km": 359.02555820726957,
      "latitude_deg": 2.2464117756151595e-05,
      "longitude_deg": 114.59501239683253,
      "height_km": 360.8984264629276,
      "semi_major_axis_km": 6737.839913253749,
      "eccentricity": 0.00010053,
      "inclination_deg": 53.16,
      "raan_deg": 286.5858,
      "arg_perigee_deg": 114.5668,
      "mean_anomaly_deg": 245.5455,
      "mean_motion_rev_day": 15.6971833
    },
    {
      "epoch": "2026-03-30T21:53:49.014240Z",
      "apogee_km": 360.7413724731696,
      "perigee_km": 358.77282933264996,
      "latitude_deg": -1.2885222156154535e-05,
      "longitude_deg": 125.12316432807644,
      "height_km": 360.639835393723,
      "semi_major_axis_km": 6737.8941009029095,
      "eccentricity": 0.00014608,
      "inclination_deg": 53.1589,
      "raan_deg": 281.8747,
      "arg_perigee_deg": 88.2354,
      "mean_anomaly_deg": 271.8831,
      "mean_motion_rev_day": 15.69699394
    },
    {
      "epoch": "2026-03-31T13:10:38.767584Z",
      "apogee_km": 359.840672207476,
      "perigee_km": 359.6393444424666,
      "latitude_deg": -3.1566399253728605e-05,
      "longitude_deg": -107.85130162045786,
      "height_km": 360.571392107817,
      "semi_major_axis_km": 6737.877008324971,
      "eccentricity": 1.494e-05,
      "inclination_deg": 53.1599,
      "raan_deg": 278.7351,
      "arg_perigee_deg": 33.8865,
      "mean_anomaly_deg": 326.2162,
      "mean_motion_rev_day": 15.69705367
    },
    {
      "epoch": "2026-04-01T12:05:54.724704Z",
      "apogee_km": 359.84901916000035,
      "perigee_km": 359.4191493648241,
      "latitude_deg": 5.2560895098255246e-05,
      "longitude_deg": -97.31476178665669,
      "height_km": 360.6761565956205,
      "semi_major_axis_km": 6737.771084262412,
      "eccentricity": 3.19e-05,
      "inclination_deg": 53.1592,
      "raan_deg": 274.0294,
      "arg_perigee_deg": 126.3556,
      "mean_anomaly_deg": 233.7492,
      "mean_motion_rev_day": 15.69742383
    },
    {
      "epoch": "2026-04-02T18:39:34.437024Z",
      "apogee_km": 360.1864974480277,
      "perigee_km": 359.256672963269,
      "latitude_deg": 3.041969919599729e-05,
      "longitude_deg": 156.73715792083917,
      "height_km": 360.30102187469004,
      "semi_major_axis_km": 6737.858585205648,
      "eccentricity": 6.9e-05,
      "inclination_deg": 53.1569,
      "raan_deg": 267.7519,
      "arg_perigee_deg": 43.9529,
      "mean_anomaly_deg": 316.1544,
      "mean_motion_rev_day": 15.69711805
    },
    {
      "epoch": "2026-04-02T18:39:34.437888Z",
      "apogee_km": 360.1864300694406,
      "perigee_km": 359.2567403418543,
      "latitude_deg": 3.10592069153109e-05,
      "longitude_deg": 156.7371547874561,
      "height_km": 360.3010703804543,
      "semi_major_axis_km": 6737.858585205648,
      "eccentricity": 6.899e-05,
      "inclination_deg": 53.1569,
      "raan_deg": 267.7519,
      "arg_perigee_deg": 43.9529,
      "mean_anomaly_deg": 316.1544,
      "mean_motion_rev_day": 15.69711805
    },
    {
      "epoch": "2026-04-03T17:34:54.067872Z",
      "apogee_km": 361.3176215853464,
      "perigee_km": 358.44453067768427,
      "latitude_deg": 3.9332512329526875e-05,
      "longitude_deg": 167.25809145331996,
      "height_km": 361.1285667591517,
      "semi_major_axis_km": 6738.018076131515,
      "eccentricity": 0.0002132,
      "inclination_deg": 53.1603,
      "raan_deg": 263.046,
      "arg_perigee_deg": 103.4939,
      "mean_anomaly_deg": 256.6317,
      "mean_motion_rev_day": 15.69656072
    },
    {
      "epoch": "2026-04-04T16:30:05.893344Z",
      "apogee_km": 360.31229106025785,
      "perigee_km": 359.1008267883635,
      "latitude_deg": 7.378399601552407e-06,
      "longitude_deg": 177.8097052136168,
      "height_km": 360.95413995969454,
      "semi_major_axis_km": 6737.84355892431,
      "eccentricity": 8.99e-05,
      "inclination_deg": 53.1578,
      "raan_deg": 258.3382,
      "arg_perigee_deg": 123.4297,
      "mean_anomaly_deg": 236.6807,
      "mean_motion_rev_day": 15.69717056
    },
    {
      "epoch": "2026-04-05T13:53:40.231104Z",
      "apogee_km": 360.2981418197787,
      "perigee_km": 359.30631716519747,
      "latitude_deg": -1.6141037425152485e-05,
      "longitude_deg": -148.35696165992363,
      "height_km": 360.72152579705994,
      "semi_major_axis_km": 6737.939229492488,
      "eccentricity": 7.36e-05,
      "inclination_deg": 53.1603,
      "raan_deg": 253.9432,
      "arg_perigee_deg": 90.593,
      "mean_anomaly_deg": 269.5172,
      "mean_motion_rev_day": 15.69683624
    },
    {
      "epoch": "2026-04-05T20:00:24.851808Z",
      "apogee_km": 360.3852799805154,
      "perigee_km": 359.218268984775,
      "latitude_deg": -5.315466495059199e-05,
      "longitude_deg": 118.44906358093421,
      "height_km": 360.8154126841135,
      "semi_major_axis_km": 6737.938774482645,
      "eccentricity": 8.66e-05,
      "inclination_deg": 53.1597,
      "raan_deg": 252.6862,
      "arg_perigee_deg": 99.837,
      "mean_anomaly_deg": 260.2745,
      "mean_motion_rev_day": 15.69683783
    }
  ]
}